*******************************************************************************
JPL/HORIZONS               393 Lampetia (A894 VC)          2020-Jun-22 08:58:35
Rec #:     393 (+COV) Soln.date: 2020-Feb-22_15:26:22   # obs: 2555 (1903-2020)
 
IAU76/J2000 helio. ecliptic osc. elements (au, days, deg., period=Julian yrs):
 
  EPOCH=  2456036.5 ! 2012-Apr-19.00 (TDB)         Residual RMS= .29299
   EC= .3318697264468623   QR= 1.855217227390293   TP= 2456787.4746255404
   OM= 212.4638505599216   W=  91.00529414211572   IN= 14.88016293647256
   A= 2.776729779843966    MA= 200.0335489343484   ADIST= 3.69824233229764
   PER= 4.6271             N= .213011787           ANGMOM= .027040188
   DAN= 2.48538            DDN= 2.4566             L= 303.5040195
   B= 14.8778196           MOID= .91081601         TP= 2014-May-09.9746255404
 
Asteroid physical parameters (km, seconds, rotational period in hours):
   GM= n.a.                RAD= 58.0955            ROTPER= 38.455
   H= 8.4                  G= .150                 B-V= .740
                           ALBEDO= .022            STYP= Xc
 
ASTEROID comments: 
1: soln ref.= JPL#109, OCC=0           radar( 1 delay, 0 Dop.)
2: source=ORB
*******************************************************************************
 
 
*******************************************************************************
Ephemeris / WWW_USER Mon Jun 22 08:58:35 2020 Pasadena, USA      / Horizons
*******************************************************************************
Target body name: 393 Lampetia (A894 VC)          {source: JPL#109}
Center body name: Solar System Barycenter (0)     {source: DE431}
Center-site name: BODY CENTER
*******************************************************************************
Start time      : A.D. 1969-Jun-28 00:00:00.0000 TDB
Stop  time      : A.D. 2071-May-04 00:00:00.0000 TDB
Step-size       : 7200 minutes
*******************************************************************************
Center geodetic : 0.00000000,0.00000000,0.0000000 {E-lon(deg),Lat(deg),Alt(km)}
Center cylindric: 0.00000000,0.00000000,0.0000000 {E-lon(deg),Dxy(km),Dz(km)}
Center radii    : (undefined)                                                  
Small perturbers: Yes                             {source: SB431-N16}
Output units    : AU-D
Output type     : GEOMETRIC cartesian states
Output format   : 2 (position and velocity)
Reference frame : Ecliptic of J2000.0
*******************************************************************************
Initial IAU76/J2000 heliocentric ecliptic osculating elements (au, days, deg.):
  EPOCH=  2456036.5 ! 2012-Apr-19.00 (TDB)         Residual RMS= .29299        
   EC= .3318697264468623   QR= 1.855217227390293   TP= 2456787.4746255404      
   OM= 212.4638505599216   W=  91.00529414211572   IN= 14.88016293647256       
  Equivalent ICRF heliocentric equatorial cartesian coordinates (au, au/d):
   X=-2.490799615503227E+00  Y= 2.685810251141747E+00  Z= 1.596074985813819E-01
  VX=-4.856850786659215E-03 VY=-5.324724299147598E-03 VZ=-1.704182046933094E-03
Asteroid physical parameters (km, seconds, rotational period in hours):        
   GM= n.a.                RAD= 58.0955            ROTPER= 38.455              
   H= 8.4                  G= .150                 B-V= .740                   
                           ALBEDO= .022            STYP= Xc                    
*******************************************************************************
            JDTDB,            Calendar Date (TDB),        delta-T,                      X,                      Y,                      Z,                     VX,                     VY,                     VZ,
******************************************************************************************************************************************************************************************************************
$$SOE
2474840.500000000, A.D. 2063-Oct-13 00:00:00.0000,      69.182372, -3.120621733859486E+00,  1.048123272779998E+00, -6.673519849523122E-01, -7.327745111486445E-04, -8.104174806840335E-03,  1.741029148397435E-03,
2474845.500000000, A.D. 2063-Oct-18 00:00:00.0000,      69.182397, -3.123981805982305E+00,  1.007501290355356E+00, -6.585819989346965E-01, -6.110315811812128E-04, -8.144420187138375E-03,  1.766950722546180E-03,
2474850.500000000, A.D. 2063-Oct-23 00:00:00.0000,      69.182434, -3.126729810747101E+00,  9.666810740765515E-01, -6.496826269026921E-01, -4.879452934293476E-04, -8.183463631458375E-03,  1.792782783602541E-03,
2474855.500000000, A.D. 2063-Oct-28 00:00:00.0000,      69.182484, -3.128858997169333E+00,  9.256687052689612E-01, -6.406543281723358E-01, -3.635019545545238E-04, -8.221276302386704E-03,  1.818520592518115E-03,
2474860.500000000, A.D. 2063-Nov-02 00:00:00.0000,      69.182543, -3.130362545584320E+00,  8.844704121652514E-01, -6.314975863461767E-01, -2.376877884685439E-04, -8.257828267986378E-03,  1.844159171920859E-03,
2474865.500000000, A.D. 2063-Nov-07 00:00:00.0000,      69.182612, -3.131233567274103E+00,  8.430925754757036E-01, -6.222129105325531E-01, -1.104889528184029E-04, -8.293088462473716E-03,  1.869693294964766E-03,
2474870.500000000, A.D. 2063-Nov-12 00:00:00.0000,      69.182691, -3.131465104180497E+00,  8.015417341588160E-01, -6.128008366219614E-01,  1.810844299516428E-05, -8.327024645420875E-03,  1.895117473637157E-03,
2474875.500000000, A.D. 2063-Nov-17 00:00:00.0000,      69.182783, -3.131050128712342E+00,  7.598245913996778E-01, -6.032619286233075E-01,  1.481183181379809E-04, -8.359603359435598E-03,  1.920425946493026E-03,
2474880.500000000, A.D. 2063-Nov-22 00:00:00.0000,      69.182885, -3.129981543655579E+00,  7.179480208038913E-01, -5.935967800629856E-01,  2.795545988687715E-04, -8.390789886250308E-03,  1.945612665785617E-03,
2474885.500000000, A.D. 2063-Nov-27 00:00:00.0000,      69.182994, -3.128252182195428E+00,  6.759190728151632E-01, -5.838060154498586E-01,  4.124311951540040E-04, -8.420548201154485E-03,  1.970671283972094E-03,
2474890.500000000, A.D. 2063-Dec-02 00:00:00.0000,      69.183111, -3.125854808060490E+00,  6.337449813650148E-01, -5.738902918092984E-01,  5.467619752709447E-04, -8.448840925705027E-03,  1.995595139584447E-03,
2474895.500000000, A.D. 2063-Dec-07 00:00:00.0000,      69.183233, -3.122782115799021E+00,  5.914331707633372E-01, -5.638503002894495E-01,  6.825607383213369E-04, -8.475629278674934E-03,  2.020377242469103E-03,
2474900.500000000, A.D. 2063-Dec-12 00:00:00.0000,      69.183361, -3.119026731198018E+00,  5.489912628385848E-01, -5.536867678428590E-01,  8.198411845764405E-04, -8.500873025258175E-03,  2.045010258402003E-03,
2474905.500000000, A.D. 2063-Dec-17 00:00:00.0000,      69.183496, -3.114581211856342E+00,  5.064270843361477E-01, -5.434004589866386E-01,  9.586168834737846E-04, -8.524530424608380E-03,  2.069486493049103E-03,
2474910.500000000, A.D. 2063-Dec-22 00:00:00.0000,      69.183636, -3.109438047924475E+00,  4.637486745831009E-01, -5.329921776446690E-01,  1.098901238890059E-03, -8.546558175739108E-03,  2.093797875167567E-03,
2474915.500000000, A.D. 2063-Dec-27 00:00:00.0000,      69.183778, -3.103589663025428E+00,  4.209642934278173E-01, -5.224627690758770E-01,  1.240707451388974E-03, -8.566911361648359E-03,  2.117935938974956E-03,
2474920.500000000, A.D. 2064-Jan-01 00:00:00.0000,      69.183921, -3.097028415372054E+00,  3.780824294636324E-01, -5.118131218926784E-01,  1.384048477419910E-03, -8.585543391581827E-03,  2.141891805725329E-03,
2474925.500000000, A.D. 2064-Jan-06 00:00:00.0000,      69.184063, -3.089746599096031E+00,  3.351118085455120E-01, -5.010441701734406E-01,  1.528936985401971E-03, -8.602405941609537E-03,  2.165656164514358E-03,
2474930.500000000, A.D. 2064-Jan-11 00:00:00.0000,      69.184205, -3.081736445805187E+00,  2.920614026076732E-01, -4.901568956731321E-01,  1.675385308202090E-03, -8.617448893672509E-03,  2.189219252167309E-03,
2474935.500000000, A.D. 2064-Jan-16 00:00:00.0000,      69.184348, -3.072990126388701E+00,  2.489404387899664E-01, -4.791523301371974E-01,  1.823405391422839E-03, -8.630620272997665E-03,  2.212570832039457E-03,
2474940.500000000, A.D. 2064-Jan-21 00:00:00.0000,      69.184488, -3.063499753092150E+00,  2.057584088817112E-01, -4.680315577243060E-01,  1.973008737130171E-03, -8.641866183670955E-03,  2.235700171664665E-03,
2474945.500000000, A.D. 2064-Jan-26 00:00:00.0000,      69.184624, -3.053257381885758E+00,  1.625250790925352E-01, -4.567957175437070E-01,  2.124206342823827E-03, -8.651130742256517E-03,  2.258596019270655E-03,
2474950.500000000, A.D. 2064-Jan-31 00:00:00.0000,      69.184754, -3.042255015150052E+00,  1.192505001599814E-01, -4.454460063127759E-01,  2.277008635464292E-03, -8.658356009481205E-03,  2.281246579188967E-03,
2474955.500000000, A.D. 2064-Feb-05 00:00:00.0000,      69.184877, -3.030484604704254E+00,  7.594501780334366E-02, -4.339836811402664E-01,  2.431425400298222E-03, -8.663481920077435E-03,  2.303639486162228E-03,
2474960.500000000, A.D. 2064-Feb-10 00:00:00.0000,      69.184995, -3.017938055204247E+00,  3.261928353265332E-02, -4.224100624408198E-01,  2.587465704149575E-03, -8.666446210899462E-03,  2.325761778527915E-03,
2474965.500000000, A.D. 2064-Feb-15 00:00:00.0000,      69.185106, -3.004607227938719E+00, -1.071573417884203E-02, -4.107265369864374E-01,  2.745137812783385E-03, -8.667184347429651E-03,  2.347599870243430E-03,
2474970.500000000, A.D. 2064-Feb-20 00:00:00.0000,      69.185209, -2.990483945054195E+00, -5.404873835095246E-02, -3.989345611008028E-01,  2.904449101915096E-03, -8.665629448793297E-03,  2.369139521715089E-03,
2474975.500000000, A.D. 2064-Feb-25 00:00:00.0000,      69.185303, -2.975559994241849E+00, -9.736809157442083E-02, -3.870356640025239E-01,  3.065405961411188E-03, -8.661712211405548E-03,  2.390365809395603E-03,
